#dP2021  3 28 18  0  0.00000000      96 __u+U ITR00 EXT  IAC
## 2151  64800.00000000   900.00000000 59301 0.7500000000000
+  117   C06C07C08C09C10C11C12C13C14C16C19C20C21C22C23C24C25
+        C26C27C28C29C30C32C33C34C35C36C37C38C39C40C41C42C43
+        C44C45C46E01E02E03E04E05E07E08E09E11E12E13E14E15E18
+        E19E21E24E25E26E27E30E31E33E36G01G02G03G04G05G06G07
+        G08G09G10G11G12G13G14G15G16G17G18G19G20G21G22G23G24
+        G25G26G27G28G29G30G31G32J01J02J03R01R02R03R04R05R07
+        R08R09R11R12R13R14R15R16R17R18R19R20R21R22R24  0  0
++        10  8 10 12 11 12 11 11 10 10  9  8  9  9  9  8  9
++         8 10 10  9  9  9  9  9  9  6  8 10  8 11  9 10 11
++         8  9 10  9  8  8  8  9  8  8  8  9  8  8  8  8  8
++         8  8  8  8  8  9  8  7  7  9  7  8  9  8  7  8  7
++         6  7  6  8  8  7  7  9  8  8  7  8  8  7  8  6  6
++         8  8  6  7  9  6  8  9  9  8  9  8  8  8  8  8  9
++         8 10 10  9  9  9  8  9  7  9  8  8  8  9  7  0  0
%c M  cc GPS ccc cccc cccc cccc cccc ccccc ccccc ccccc ccccc
%c cc cc ccc ccc cccc cccc cccc cccc ccccc ccccc ccccc ccccc
%f  0.0000000  0.000000000  0.00000000000  0.000000000000000
%f  0.0000000  0.000000000  0.00000000000  0.000000000000000
%i    0    0    0    0      0      0      0      0         0
%i    0    0    0    0      0      0      0      0         0
/* IAC                                ULTRA-RAPID PREDICTION
/* S/V CLOCKS ARE ALIGNED TO GNSS TIME                      
/* G:C1WC2W R:C1PC2P E:C1XC5X C:C2IC6I J:C1CC2S             
/* PCV:IGS14_2134 OL/AL:FES2004  NONE     YN ORB:CoN CLK:CoN
*  2021 03 29 10  0  0.00000000
PC06 -13527.474701  20639.525593 -33757.267089    223.888210
PC07 -23665.656062  32958.953695  10688.789886    -65.618992
PC08  -8238.189824  34938.766145  22529.086953   -896.026449
PC09   3010.592840  26800.251388 -32014.308034    634.431306
PC10 -10957.113159  34130.292746  22062.086655    -64.493796
PC11   9116.190639 -12296.829881 -23273.021072   -840.840611
PC12  22933.769684   1527.157677 -15800.439623    901.544146
PC13    600.838004  41175.699504   9733.237621    199.754258
PC14  18321.330257 -18648.973296   9873.175472    330.617712
PC16  -8618.368588  22467.337155 -34499.392504   -756.964060
PC19  -9665.489295  19566.423867 -17350.554507    779.072117
PC20 -23188.328859  15332.111349  -2230.492246   -940.441390
PC21  23511.776135  -1705.655430 -14929.325168   -911.147745
PC22   9903.418685  12568.015679 -22855.781391   -938.020716
PC23  -8802.314379 -23333.103505 -12520.148327   -881.487479
PC24  13830.178998 -14753.416316  19206.722616   -796.815593
PC25   2461.427061 -27467.564764   4185.476654   -940.972109
PC26  16031.826571   4664.120532  22354.408304    928.635108
PC27 -25292.597667  -8934.267386   7719.713443    506.533791
PC28 -18119.297825 -18783.600897  -9877.139544    -92.725457
PC29   1006.206051  17598.500621  21625.012733    371.484191
PC30 -17789.327637   6431.171748  20521.241202    456.094369
PC32 -23482.592975   1818.600979  14978.875548   -924.639109
PC33   9623.912068 -19670.189202  17319.737977   -943.643547
PC34  17220.866764  -6998.819431 -20813.415514   -708.145795
PC35  18489.577477  18245.978471  10138.436036   -352.318611
PC36  -3315.338130  27339.503595  -4498.117970   -736.439274
PC37 -15804.430426  -5966.891328 -22196.331545   -884.927575
PC38  -6914.512556  37146.959898  18861.316756    138.831819
PC39  -5693.084430  23476.816674 -34546.040068     29.810605
PC40 -17543.785739  30567.203910  23054.604506    145.759447
PC41  -9671.888033 -12792.004014  22890.551125   -936.582537
PC42  23456.236758 -15051.738931   1628.127611   -932.967692
PC43   -372.758807 -17547.104428 -21708.388460   -661.163401
PC44  25582.954272   8146.038398  -7543.762144    110.252445
PC45   8828.710347  23278.327309  12628.030624    399.464719
PC46 -13363.079826  15742.495978 -18787.485088    340.965998
PE01  15657.549363   5595.341353  24483.983028  -1075.633160
PE02 -15732.840272  -5443.786593 -24481.198627    208.371337
PE03 -27168.022867  -5800.641900  10202.677844   -414.187401
PE04  27564.544716  -7168.221840   8072.424822   -738.911272
PE05 -10816.017581 -15551.852015  22749.584576   -293.174487
PE07 -11667.080453  16128.342523 -21895.553416   -518.845892
PE08 -27390.300555   7442.198296  -8374.447215   6025.880159
PE09  11437.021104 -16099.731838  22060.817650   5718.852951
PE11   1945.934327 -21311.211445 -20464.090754   6153.568127
PE12  16583.366617  -3668.973578 -24235.040360   5286.487757
PE13  -2204.167295  20991.640991  20755.050517    414.242699
PE14 -17547.234239   7795.859677  13737.112784  -1378.351655
PE15 -16516.741807   3685.999811  24296.844584    822.216091
PE18  18631.948340 -14556.659687 -22323.902859  -1507.552576
PE19  26019.159590   7147.162098 -12158.582338    238.799574
PE21   2905.383555  22502.403785  19007.795633   -656.304248
PE24  12550.571359 -26742.368016  -1638.591717   -818.342137
PE25  -2768.887031 -22608.153965 -18898.689540   -529.638083
PE26  13718.193516  25881.641184   4247.596888   1986.749175
PE27 -11996.927128  26968.716482   2317.288004      0.268007
PE30 -19945.390256  14666.518040 -16251.775750   3068.409903
PE31  19749.851123 -15544.995475  15632.391784   -479.636650
PE33  21077.377279  15756.618796 -13528.748426   -467.002440
PE36 -13410.139541 -25922.910964  -4973.091336   -186.420855
PG01 -15930.389564  -2747.261800  20899.304690    729.834712
PG02  13797.875707  22161.330467  -4101.561141   -590.699422
PG03 -20000.613094   8222.223287  15267.042019   -121.582831
PG04 -26000.851958   -924.524684  -5485.174490   -188.942181
PG05  12753.298434   8664.353062 -21782.164255    -37.563243
PG06   5097.629224  25188.193927   6652.445862      3.569100
PG07 -10635.767568  12685.362813 -20321.199499    105.306850
PG08 -25989.652233  -5503.895444  -2921.818848    -15.538336
PG09 -20783.989276   7734.804586 -14688.804101   -334.887594
PG10   9727.485822 -22727.002915   9458.524997    -90.935718
PG11 -21590.205627  -4194.743384  14192.992737     14.532443
PG12  19534.087784  -3900.797881  17240.188164    -20.596483
PG13  20671.366561  13337.534913 -10311.027366    113.466344
PG14 -11674.133918  22318.053873   8393.504539     98.954244
PG15  26432.690187   3179.464165  -2992.577258   -159.870147
PG16  -9336.171466 -11905.311129 -22045.431804   -301.363393
PG17  -4418.501285  14303.975217  22365.934405    417.608667
PG18   8137.383713 -16351.150301 -19268.636687    351.322131
PG19   5135.776130  15591.802483  20618.439173    -20.045798
PG20  17660.380233 -17638.951012  -8608.841236    523.715635
PG21 -18362.973461  -9821.198029  17469.630555    106.880898
PG22 -17345.398984   -807.061760  20249.688550   -650.069810
PG23  16758.307296 -20528.858716  -1409.927524    115.995524
PG24  18133.868019   7746.758743  17725.851940      0.452731
PG25  19402.036180 -16297.461651   7209.075639    108.182054
PG26  -1936.438315 -19439.743866 -17930.880033     64.749651
PG27 -19384.656927 -12350.151461 -13796.181282   -102.909871
PG28 -10280.647594  21990.302643  11555.601757    594.977350
PG29  20703.914234  -5947.495471 -15611.010792   -320.480204
PG30  -1849.894082  22942.135691 -13003.484759   -405.300462
PG31  -6492.917375 -25232.737821   3568.807745   -108.436376
PG32   1668.986311 -15249.773052  21788.436875     21.823089
PJ01 -35617.515569  19329.470418  -7035.761843   -359.572948
PJ02 -24281.321738  31819.042293  -8801.678873      4.301373
PJ03 -27642.759502  21685.208796  28364.437076     -2.465677
PR01  24035.752236  -8500.270708  -1058.323316     77.087408
PR02  12254.050140 -13260.203317  18035.741659    472.695307
PR03  -6057.333865  -9445.852240  22956.494497     33.251312
PR04 -20640.530321   -222.591802  15020.311332     80.002992
PR05 -23852.241584   8971.929023  -1338.143780     69.017576
PR07   6623.393342   9174.696250 -22816.341093    -42.561582
PR08  20700.636622    195.206875 -14831.633314    -58.228735
PR09  -6147.758139  24417.761815  -3840.214255    -14.753471
PR11   9694.059791   6708.548502  22625.923841      1.797761
PR12  11468.032921 -12711.575555  18920.155213    216.471628
PR13   6298.981654 -24312.458288   4431.796360    -52.674586
PR14  -2595.707594 -21636.138755 -13262.326490     62.544463
PR15  -9818.175229  -6424.894811 -22634.137534    104.660822
PR16 -11195.039872  13984.518601 -18247.210188    -13.139522
PR17 -14175.127429 -18459.964642 -10394.275945    411.917585
PR18 -20405.943271 -13914.486167   6513.798110     71.397566
PR19 -16104.675202  -2978.537606  19558.234125   -137.639901
PR20  -1053.009345  12432.543579  22247.527210    -46.238859
PR21  14904.007547  18498.874778   9318.140948   -197.864643
PR22  20294.750386  13353.078710  -7617.833631   -105.082366
PR24    485.572919 -13236.477887 -21781.079367     36.810932
EOF
